{
 "generated_at": "2026-06-26T08:30:21Z",
 "sources": [
  {
   "name": "CelesTrak",
   "url": "https://celestrak.org/NORAD/elements/",
   "license": "frei verfügbar; Attribution. Ursprünglich USSPACECOM/Space-Track."
  },
  {
   "name": "GCAT (J. McDowell, planet4589.org)",
   "url": "https://planet4589.org/space/gcat/",
   "license": "CC-BY 4.0"
  }
 ],
 "satellites": [
  {
   "norad": 60453,
   "name": "LEGION 4",
   "intl": "2024-146B",
   "group": "resource",
   "gcat": {
    "class": "B",
    "category": "IMG",
    "owner": "MAXARI",
    "state": "US"
   },
   "omm": {
    "OBJECT_NAME": "LEGION 4",
    "OBJECT_ID": "2024-146B",
    "EPOCH": "2026-06-26T03:52:09.713856",
    "MEAN_MOTION": 15.16097368,
    "ECCENTRICITY": 0.0012777,
    "INCLINATION": 45.0017,
    "RA_OF_ASC_NODE": 74.3343,
    "ARG_OF_PERICENTER": 356.9313,
    "MEAN_ANOMALY": 3.1485,
    "EPHEMERIS_TYPE": 0,
    "CLASSIFICATION_TYPE": "U",
    "NORAD_CAT_ID": 60453,
    "ELEMENT_SET_NO": 999,
    "REV_AT_EPOCH": 10223,
    "BSTAR": 0.00023074,
    "MEAN_MOTION_DOT": 0.00004263,
    "MEAN_MOTION_DDOT": 0
   }
  },
  {
   "norad": 51284,
   "name": "LUDI TANCE 1-01A (L-SAR 01A)",
   "intl": "2022-007A",
   "group": "sar",
   "gcat": {
    "class": "C",
    "category": "IMG-R",
    "owner": "SAST",
    "state": "CN"
   },
   "omm": {
    "OBJECT_NAME": "LUDI TANCE 1-01A (L-SAR 01A)",
    "OBJECT_ID": "2022-007A",
    "EPOCH": "2026-06-26T04:32:56.880672",
    "MEAN_MOTION": 14.88416932,
    "ECCENTRICITY": 0.0001597,
    "INCLINATION": 97.8098,
    "RA_OF_ASC_NODE": 184.4814,
    "ARG_OF_PERICENTER": 91.9953,
    "MEAN_ANOMALY": 268.1447,
    "EPHEMERIS_TYPE": 0,
    "CLASSIFICATION_TYPE": "U",
    "NORAD_CAT_ID": 51284,
    "ELEMENT_SET_NO": 999,
    "REV_AT_EPOCH": 23981,
    "BSTAR": 0.000066668,
    "MEAN_MOTION_DOT": 0.00000564,
    "MEAN_MOTION_DDOT": 0
   }
  },
  {
   "norad": 51822,
   "name": "LUDI TANCE 1-01B (L-SAR 01B)",
   "intl": "2022-018A",
   "group": "sar",
   "gcat": {
    "class": "C",
    "category": "IMG-R",
    "owner": "SAST",
    "state": "CN"
   },
   "omm": {
    "OBJECT_NAME": "LUDI TANCE 1-01B (L-SAR 01B)",
    "OBJECT_ID": "2022-018A",
    "EPOCH": "2026-06-26T03:44:31.009344",
    "MEAN_MOTION": 14.88408723,
    "ECCENTRICITY": 0.0001606,
    "INCLINATION": 97.8103,
    "RA_OF_ASC_NODE": 184.4453,
    "ARG_OF_PERICENTER": 91.8126,
    "MEAN_ANOMALY": 268.3275,
    "EPHEMERIS_TYPE": 0,
    "CLASSIFICATION_TYPE": "U",
    "NORAD_CAT_ID": 51822,
    "ELEMENT_SET_NO": 999,
    "REV_AT_EPOCH": 23504,
    "BSTAR": 0.00006846,
    "MEAN_MOTION_DOT": 0.0000058,
    "MEAN_MOTION_DDOT": 0
   }
  },
  {
   "norad": 57624,
   "name": "LUDI TANCE-4 01A",
   "intl": "2023-120A",
   "group": "sar",
   "gcat": {
    "class": "D",
    "category": "IMG-R",
    "owner": "CNSA",
    "state": "CN"
   },
   "omm": {
    "OBJECT_NAME": "LUDI TANCE-4 01A",
    "OBJECT_ID": "2023-120A",
    "EPOCH": "2026-06-26T01:00:06.780960",
    "MEAN_MOTION": 1.00268051,
    "ECCENTRICITY": 0.0001355,
    "INCLINATION": 15.0986,
    "RA_OF_ASC_NODE": 193.7428,
    "ARG_OF_PERICENTER": 22.0692,
    "MEAN_ANOMALY": 162.9814,
    "EPHEMERIS_TYPE": 0,
    "CLASSIFICATION_TYPE": "U",
    "NORAD_CAT_ID": 57624,
    "ELEMENT_SET_NO": 999,
    "REV_AT_EPOCH": 1063,
    "BSTAR": 0,
    "MEAN_MOTION_DOT": -0.00000154,
    "MEAN_MOTION_DDOT": 0
   }
  },
  {
   "norad": 27004,
   "name": "MAROC-TUBSAT",
   "intl": "2001-056D",
   "group": "resource",
   "gcat": {
    "class": null,
    "category": null,
    "owner": null,
    "state": null
   },
   "omm": {
    "OBJECT_NAME": "MAROC-TUBSAT",
    "OBJECT_ID": "2001-056D",
    "EPOCH": "2026-06-26T05:25:35.812416",
    "MEAN_MOTION": 13.70262796,
    "ECCENTRICITY": 0.002054,
    "INCLINATION": 99.8086,
    "RA_OF_ASC_NODE": 354.2561,
    "ARG_OF_PERICENTER": 118.8322,
    "MEAN_ANOMALY": 60.5778,
    "EPHEMERIS_TYPE": 0,
    "CLASSIFICATION_TYPE": "U",
    "NORAD_CAT_ID": 27004,
    "ELEMENT_SET_NO": 999,
    "REV_AT_EPOCH": 22742,
    "BSTAR": 0.00003402,
    "MEAN_MOTION_DOT": -1.7e-7,
    "MEAN_MOTION_DDOT": 0
   }
  },
  {
   "norad": 40069,
   "name": "METEOR-M 2",
   "intl": "2014-037A",
   "group": "weather",
   "gcat": {
    "class": "C",
    "category": "MET",
    "owner": "RGMS/VNIIEMI",
    "state": "RU"
   },
   "omm": {
    "OBJECT_NAME": "METEOR-M 2",
    "OBJECT_ID": "2014-037A",
    "EPOCH": "2026-06-26T05:25:18.617952",
    "MEAN_MOTION": 14.21463611,
    "ECCENTRICITY": 0.0006356,
    "INCLINATION": 98.5113,
    "RA_OF_ASC_NODE": 152.644,
    "ARG_OF_PERICENTER": 21.7529,
    "MEAN_ANOMALY": 338.3917,
    "EPHEMERIS_TYPE": 0,
    "CLASSIFICATION_TYPE": "U",
    "NORAD_CAT_ID": 40069,
    "ELEMENT_SET_NO": 999,
    "REV_AT_EPOCH": 62060,
    "BSTAR": 0.000059832,
    "MEAN_MOTION_DOT": 8.9e-7,
    "MEAN_MOTION_DDOT": 0
   }
  },
  {
   "norad": 44387,
   "name": "METEOR-M2 2",
   "intl": "2019-038A",
   "group": "weather",
   "gcat": {
    "class": "C",
    "category": "MET",
    "owner": "RGMS/VNIIEMI",
    "state": "RU"
   },
   "omm": {
    "OBJECT_NAME": "METEOR-M2 2",
    "OBJECT_ID": "2019-038A",
    "EPOCH": "2026-06-26T05:40:05.403360",
    "MEAN_MOTION": 14.24368452,
    "ECCENTRICITY": 0.0001705,
    "INCLINATION": 98.9146,
    "RA_OF_ASC_NODE": 164.6551,
    "ARG_OF_PERICENTER": 35.5385,
    "MEAN_ANOMALY": 324.5906,
    "EPHEMERIS_TYPE": 0,
    "CLASSIFICATION_TYPE": "U",
    "NORAD_CAT_ID": 44387,
    "ELEMENT_SET_NO": 999,
    "REV_AT_EPOCH": 36258,
    "BSTAR": 0.00010735,
    "MEAN_MOTION_DOT": 0.00000202,
    "MEAN_MOTION_DDOT": 0
   }
  },
  {
   "norad": 57166,
   "name": "METEOR-M2 3",
   "intl": "2023-091A",
   "group": "weather",
   "gcat": {
    "class": "C",
    "category": "MET",
    "owner": "RGMS/VNIIEMI",
    "state": "RU"
   },
   "omm": {
    "OBJECT_NAME": "METEOR-M2 3",
    "OBJECT_ID": "2023-091A",
    "EPOCH": "2026-06-26T05:34:53.899392",
    "MEAN_MOTION": 14.24047445,
    "ECCENTRICITY": 0.0004791,
    "INCLINATION": 98.6079,
    "RA_OF_ASC_NODE": 232.0257,
    "ARG_OF_PERICENTER": 133.1982,
    "MEAN_ANOMALY": 226.9598,
    "EPHEMERIS_TYPE": 0,
    "CLASSIFICATION_TYPE": "U",
    "NORAD_CAT_ID": 57166,
    "ELEMENT_SET_NO": 999,
    "REV_AT_EPOCH": 15580,
    "BSTAR": 0.000017969,
    "MEAN_MOTION_DOT": -2e-8,
    "MEAN_MOTION_DDOT": 0
   }
  },
  {
   "norad": 59051,
   "name": "METEOR-M2 4",
   "intl": "2024-039A",
   "group": "weather",
   "gcat": {
    "class": "C",
    "category": "MET",
    "owner": "RGMS/VNIIEMI",
    "state": "RU"
   },
   "omm": {
    "OBJECT_NAME": "METEOR-M2 4",
    "OBJECT_ID": "2024-039A",
    "EPOCH": "2026-06-26T04:29:35.090016",
    "MEAN_MOTION": 14.22430424,
    "ECCENTRICITY": 0.0007775,
    "INCLINATION": 98.7013,
    "RA_OF_ASC_NODE": 136.3722,
    "ARG_OF_PERICENTER": 136.7485,
    "MEAN_ANOMALY": 223.4304,
    "EPHEMERIS_TYPE": 0,
    "CLASSIFICATION_TYPE": "U",
    "NORAD_CAT_ID": 59051,
    "ELEMENT_SET_NO": 999,
    "REV_AT_EPOCH": 12054,
    "BSTAR": 0.000024819,
    "MEAN_MOTION_DOT": 1.2e-7,
    "MEAN_MOTION_DDOT": 0
   }
  },
  {
   "norad": 38552,
   "name": "METEOSAT-10 (MSG-3)",
   "intl": "2012-035B",
   "group": "weather",
   "gcat": {
    "class": "C",
    "category": "MET",
    "owner": "EUMET",
    "state": "I-EUM"
   },
   "omm": {
    "OBJECT_NAME": "METEOSAT-10 (MSG-3)",
    "OBJECT_ID": "2012-035B",
    "EPOCH": "2026-06-26T00:34:16.711392",
    "MEAN_MOTION": 1.00268444,
    "ECCENTRICITY": 0.0001742,
    "INCLINATION": 4.6924,
    "RA_OF_ASC_NODE": 60.9829,
    "ARG_OF_PERICENTER": 8.1161,
    "MEAN_ANOMALY": 213.8156,
    "EPHEMERIS_TYPE": 0,
    "CLASSIFICATION_TYPE": "U",
    "NORAD_CAT_ID": 38552,
    "ELEMENT_SET_NO": 999,
    "REV_AT_EPOCH": 5094,
    "BSTAR": 0,
    "MEAN_MOTION_DOT": 0,
    "MEAN_MOTION_DDOT": 0
   }
  }
 ]
}
