MAROC-TUBSAT            
1 27004U 01056D   26177.22610894 -.00000017  00000+0  34020-4 0  9991
2 27004  99.8086 354.2561 0020540 118.8322  60.5778 13.70262796227420
METEOSAT-10 (MSG-3)     
1 38552U 12035B   26177.02380453  .00000000  00000+0  00000+0 0  9990
2 38552   4.6924  60.9829 0001742   8.1161 213.8156  1.00268444 50948
METEOR-M 2              
1 40069U 14037A   26177.22590993  .00000089  00000+0  59832-4 0  9993
2 40069  98.5113 152.6440 0006356  21.7529 338.3917 14.21463611620603
METEOR-M2 2             
1 44387U 19038A   26177.23617365  .00000202  00000+0  10735-3 0  9995
2 44387  98.9146 164.6551 0001705  35.5385 324.5906 14.24368452362587
LUDI TANCE 1-01A (L-SA*)
1 51284U 22007A   26177.18954723  .00000564  00000+0  66668-4 0  9993
2 51284  97.8098 184.4814 0001597  91.9953 268.1447 14.88416932239812
LUDI TANCE 1-01B (L-SA*)
1 51822U 22018A   26177.15591446  .00000580  00000+0  68460-4 0  9999
2 51822  97.8103 184.4453 0001606  91.8126 268.3275 14.88408723235049
METEOR-M2 3             
1 57166U 23091A   26177.23256828 -.00000002  00000+0  17969-4 0  9997
2 57166  98.6079 232.0257 0004791 133.1982 226.9598 14.24047445155800
LUDI TANCE-4 01A        
1 57624U 23120A   26177.04174515 -.00000154  00000+0  00000+0 0  9991
2 57624  15.0986 193.7428 0001355  22.0692 162.9814  1.00268051 10638
METEOR-M2 4             
1 59051U 24039A   26177.18721169  .00000012  00000+0  24819-4 0  9996
2 59051  98.7013 136.3722 0007775 136.7485 223.4304 14.22430424120540
LEGION 4                
1 60453U 24146B   26177.16122354  .00004263  00000+0  23074-3 0  9995
2 60453  45.0017  74.3343 0012777 356.9313   3.1485 15.16097368102230
